SATELIOT_4              
1 60537U 24149BX  26154.79935156  .00002049  00000+0  18485-3 0  9997
2 60537  97.6730 229.5368 0003215  87.4025 272.7565 14.96614910 97974
PICO-02A021             
1 60538U 24149BY  26154.45358512  .00005370  00000+0  40227-3 0  9995
2 60538  97.6731 233.4072 0006011  69.7180 290.4690 15.03106045 97671
ICEYE-X43               
1 60539U 24149BZ  26154.21663944  .00004456  00000+0  36396-3 0  9994
2 60539  97.6759 231.3751 0007144 126.0876 234.1010 14.99887483 98027
HAWK-10A                
1 60540U 24149CA  26154.79672009  .00001547  00000+0  14135-3 0  9996
2 60540  97.6887 230.9385 0004559 110.3475 249.8237 14.96467140 97986
UMBRA-09                
1 60541U 24149CB  26154.22313354  .00017416  00000+0  86864-3 0  9990
2 60541  97.6966 241.1946 0000429 102.7819 257.3461 15.17593985 98605
QPS-SAR-8 (AMATERU-IV)  
1 60542U 24149CC  26154.22278708  .00006418  00000+0  46887-3 0  9995
2 60542  97.6673 233.4908 0004306 141.5322 218.6211 15.03990937 98179
ARCTIC WEATHER SATELLITE
1 60543U 24149CD  26153.78047769  .00000927  00000+0  10224-3 0  9992
2 60543  97.6803 224.6573 0003200 132.0767 228.0723 14.89805255 97156
CAPELLA-15 (ACADIA-5)   
1 60544U 24149CE  26154.77891544  .00007077  00000+0  69564-3 0  9995
2 60544  97.6778 228.0181 0004894 117.0158 243.1561 14.92424531 97851
HAWK-10B                
1 60545U 24149CF  26154.79656936  .00001619  00000+0  14765-3 0  9991
2 60545  97.6807 230.3072 0006256 129.8700 230.3073 14.96467981 97988
ICEYE-X39               
1 60546U 24149CG  26154.26700289  .00003986  00000+0  32684-3 0  9994
2 60546  97.6767 231.4813 0003884 153.1050 207.0375 14.99808550 98038
UMBRA-10                
1 60547U 24149CH  26154.22268963  .00017894  00000+0  89226-3 0  9996
2 60547  97.6976 241.2208 0001520  75.1748 284.9653 15.17595745 98617
ICEYE-X33               
1 60548U 24149CJ  26154.30212545  .00004323  00000+0  34417-3 0  9996
2 60548  97.7229 233.5224 0001072 126.2639 233.8684 15.00904331 98121
ICEYE-X40               
1 60549U 24149CK  26154.20754681  .00001595  00000+0  14034-3 0  9999
2 60549  97.6796 230.9286 0005768 120.9141 239.2649 14.97891594 97989
SATELIOT_1              
1 60550U 24149CL  26154.46706410  .00002350  00000+0  20381-3 0  9998
2 60550  97.6740 230.5945 0007435 118.4028 241.7945 14.98005830 98010
BRO-14                  
1 60551U 24149CM  26154.15068400  .00001310  00000+0  12139-3 0  9992
2 60551  97.6873 230.1804 0007860 136.2798 223.9047 14.96143157 97895
SATELIOT_3              
1 60552U 24149CN  26154.77676149  .00002494  00000+0  21603-3 0  9996
2 60552  97.6834 231.6772 0006615 117.5516 242.6379 14.98007756 98073
BRO-15                  
1 60553U 24149CP  26154.80166318  .00000809  00000+0  76976-4 0  9995
2 60553  97.6801 230.4339 0009184 127.3058 232.9002 14.96101593 98008
UM5-RIBAT               
1 60554U 24149CQ  26153.73978913  .00003432  00000+0  27355-3 0  9990
2 60554  97.6644 231.7350 0003937  84.5930 275.5743 15.00988548 98020
UM5-EOSAT               
1 60555U 24149CR  26155.04328431  .00004368  00000+0  34278-3 0  9992
2 60555  97.6670 233.9388 0008409 153.3644 206.8013 15.01423436 98243
LASARSAT                
1 62391U 24247Q   26154.92379713  .00036882  00000+0  75515-3 0  9991
2 62391  44.9754 336.7002 0008048 258.6055 101.3931 15.45494859 81267
CROCUBE                 
1 62394U 24247T   26150.99870369  .00044257  00000+0  86081-3 0  9995
2 62394  44.9730 356.3242 0007341 240.2660 119.7500 15.46917883 80680
TEVEL2-4                
1 63213U 25052D   26153.24759932  .00019833  00000+0  60334-3 0  9999
2 63213  97.3927  49.6197 0004090 133.0862 227.0724 15.34050425 67822
TEVEL2-5                
1 63214U 25052E   26154.63639036  .00019992  00000+0  61020-3 0  9995
2 63214  97.3916  50.9614 0004039 130.1667 229.9930 15.33944349 68034
TEVEL2-6                
1 63215U 25052F   26154.64839894  .00020133  00000+0  61519-3 0  9993
2 63215  97.3918  50.9581 0004181 130.1242 230.0368 15.33906822 68039
TEVEL2-1                
1 63217U 25052H   26153.69393788  .00019888  00000+0  61840-3 0  9998
2 63217  97.3886  49.6443 0003899 141.0246 219.1278 15.33355434 67873
TEVEL2-3                
1 63218U 25052J   26154.21113612  .00019661  00000+0  61001-3 0  9992
2 63218  97.3892  50.1814 0003877 141.5958 218.5561 15.33427572 67951
TEVEL2-2                
1 63219U 25052K   26154.60793554  .00020300  00000+0  63028-3 0  9998
2 63219  97.3889  50.5598 0003813 141.3409 218.8107 15.33398099 68018
TEVEL2-9                
1 63237U 25052AD  26154.24128318  .00018105  00000+0  59759-3 0  9994
2 63237  97.3950  49.5986 0006417 171.9085 188.2261 15.31447810 67898
TEVEL2-7                
1 63238U 25052AE  26154.60632626  .00017541  00000+0  58397-3 0  9997
2 63238  97.3955  49.8841 0006417 171.2563 188.8791 15.31176236 67942
TEVEL2-8                
1 63239U 25052AF  26154.94119385  .00017135  00000+0  57066-3 0  9998
2 63239  97.3952  50.1954 0006473 170.8239 189.3121 15.31169698 67999
