OBJECT_NAME,OBJECT_ID,EPOCH,MEAN_MOTION,ECCENTRICITY,INCLINATION,RA_OF_ASC_NODE,ARG_OF_PERICENTER,MEAN_ANOMALY,EPHEMERIS_TYPE,CLASSIFICATION_TYPE,NORAD_CAT_ID,ELEMENT_SET_NO,REV_AT_EPOCH,BSTAR,MEAN_MOTION_DOT,MEAN_MOTION_DDOT
SATELIOT_4,2024-149BX,2026-06-03T19:11:03.974784,14.96614910,.00032153,97.6730,229.5368,87.4025,272.7565,0,U,60537,999,9797,.18485283E-3,.2049E-4,0
PICO-02A021,2024-149BY,2026-06-03T10:53:09.754368,15.03106045,.00060113,97.6731,233.4072,69.7180,290.4690,0,U,60538,999,9767,.40227106E-3,.537E-4,0
ICEYE-X43,2024-149BZ,2026-06-03T05:11:57.647616,14.99887483,.0007144,97.6759,231.3751,126.0876,234.1010,0,U,60539,999,9802,.36396E-3,.4456E-4,0
HAWK-10A,2024-149CA,2026-06-03T19:07:16.615776,14.96467140,.00045597,97.6887,230.9385,110.3475,249.8237,0,U,60540,999,9798,.1413536E-3,.1547E-4,0
UMBRA-09,2024-149CB,2026-06-03T05:21:18.737856,15.17593985,.0000429,97.6966,241.1946,102.7819,257.3461,0,U,60541,999,9860,.86864E-3,.17416E-3,0
QPS-SAR-8 (AMATERU-IV),2024-149CC,2026-06-03T05:20:48.803712,15.03990937,.0004306,97.6673,233.4908,141.5322,218.6211,0,U,60542,999,9817,.46887E-3,.6418E-4,0
ARCTIC WEATHER SATELLITE,2024-149CD,2026-06-02T18:43:53.272416,14.89805255,.00032,97.6803,224.6573,132.0767,228.0723,0,U,60543,999,9715,.10224E-3,.927E-5,0
CAPELLA-15 (ACADIA-5),2024-149CE,2026-06-03T18:41:38.294016,14.92424531,.0004894,97.6778,228.0181,117.0158,243.1561,0,U,60544,999,9785,.69564279E-3,.7077E-4,0
HAWK-10B,2024-149CF,2026-06-03T19:07:03.592704,14.96467981,.00062566,97.6807,230.3072,129.8700,230.3073,0,U,60545,999,9798,.14765249E-3,.1619E-4,0
ICEYE-X39,2024-149CG,2026-06-03T06:24:29.049696,14.99808550,.0003884,97.6767,231.4813,153.1050,207.0375,0,U,60546,999,9803,.32684E-3,.3986E-4,0
UMBRA-10,2024-149CH,2026-06-03T05:20:40.384032,15.17595745,.000152,97.6976,241.2208,75.1748,284.9653,0,U,60547,999,9861,.89226E-3,.17894E-3,0
ICEYE-X33,2024-149CJ,2026-06-03T07:15:03.638880,15.00904331,.00010723,97.7229,233.5224,126.2639,233.8684,0,U,60548,999,9812,.3441655E-3,.4323E-4,0
ICEYE-X40,2024-149CK,2026-06-03T04:58:52.044384,14.97891594,.0005768,97.6796,230.9286,120.9141,239.2649,0,U,60549,999,9798,.14034E-3,.1595E-4,0
SATELIOT_1,2024-149CL,2026-06-03T11:12:34.338240,14.98005830,.00074354,97.6740,230.5945,118.4028,241.7945,0,U,60550,999,9801,.20381007E-3,.235E-4,0
BRO-14,2024-149CM,2026-06-03T03:36:59.097600,14.96143157,.00078602,97.6873,230.1804,136.2798,223.9047,0,U,60551,999,9789,.12138658E-3,.131E-4,0
SATELIOT_3,2024-149CN,2026-06-03T18:38:32.192736,14.98007756,.00066151,97.6834,231.6772,117.5516,242.6379,0,U,60552,999,9807,.21602671E-3,.2494E-4,0
BRO-15,2024-149CP,2026-06-03T19:14:23.698752,14.96101593,.00091846,97.6801,230.4339,127.3058,232.9002,0,U,60553,999,9800,.76976059E-4,.809E-5,0
UM5-RIBAT,2024-149CQ,2026-06-02T17:45:17.780832,15.00988548,.00039373,97.6644,231.7350,84.5930,275.5743,0,U,60554,999,9802,.27354968E-3,.3432E-4,0
UM5-EOSAT,2024-149CR,2026-06-04T01:02:19.764384,15.01423436,.0008409,97.6670,233.9388,153.3644,206.8013,0,U,60555,999,9824,.34278E-3,.4368E-4,0
LASARSAT,2024-247Q,2026-06-03T22:10:16.072032,15.45494859,.0008048,44.9754,336.7002,258.6055,101.3931,0,U,62391,999,8126,.75515E-3,.36882E-3,0
CROCUBE,2024-247T,2026-05-30T23:58:07.998816,15.46917883,.00073418,44.9730,356.3242,240.2660,119.7500,0,U,62394,999,8068,.86080924E-3,.44257E-3,0
TEVEL2-4,2025-052D,2026-06-02T05:56:32.581248,15.34050425,.00040908,97.3927,49.6197,133.0862,227.0724,0,U,63213,999,6782,.60334383E-3,.19833E-3,0
TEVEL2-5,2025-052E,2026-06-03T15:16:24.127104,15.33944349,.0004039,97.3916,50.9614,130.1667,229.9930,0,U,63214,999,6803,.6102E-3,.19992E-3,0
TEVEL2-6,2025-052F,2026-06-03T15:33:41.668416,15.33906822,.0004181,97.3918,50.9581,130.1242,230.0368,0,U,63215,999,6803,.61519E-3,.20133E-3,0
TEVEL2-1,2025-052H,2026-06-02T16:39:16.232832,15.33355434,.0003899,97.3886,49.6443,141.0246,219.1278,0,U,63217,999,6787,.61840095E-3,.19888E-3,0
TEVEL2-3,2025-052J,2026-06-03T05:04:02.160768,15.33427572,.0003877,97.3892,50.1814,141.5958,218.5561,0,U,63218,999,6795,.61001E-3,.19661E-3,0
TEVEL2-2,2025-052K,2026-06-03T14:35:25.630656,15.33398099,.0003813,97.3889,50.5598,141.3409,218.8107,0,U,63219,999,6801,.63028E-3,.203E-3,0
TEVEL2-9,2025-052AD,2026-06-03T05:47:26.866752,15.31447810,.0006417,97.3950,49.5986,171.9085,188.2261,0,U,63237,999,6789,.59759E-3,.18105E-3,0
TEVEL2-7,2025-052AE,2026-06-03T14:33:06.588864,15.31176236,.00064176,97.3955,49.8841,171.2563,188.8791,0,U,63238,999,6794,.58397265E-3,.17541E-3,0
TEVEL2-8,2025-052AF,2026-06-03T22:35:19.148640,15.31169698,.0006473,97.3952,50.1954,170.8239,189.3121,0,U,63239,999,6799,.57066E-3,.17135E-3,0
